{
    "links": {
        "self": "http://www.neowsapp.com/rest/v1/neo/3324657?api_key=iIulBulltgU6a56xZRHN4H3l9WmuAYTsLGpBGhQ2"
    },
    "id": "3324657",
    "neo_reference_id": "3324657",
    "name": "(2006 DO63)",
    "designation": "2006 DO63",
    "nasa_jpl_url": "http://ssd.jpl.nasa.gov/sbdb.cgi?sstr=3324657",
    "absolute_magnitude_h": 25.8,
    "estimated_diameter": {
        "kilometers": {
            "estimated_diameter_min": 0.0183888672,
            "estimated_diameter_max": 0.0411187571
        },
        "meters": {
            "estimated_diameter_min": 18.388867207,
            "estimated_diameter_max": 41.1187571041
        },
        "miles": {
            "estimated_diameter_min": 0.0114263088,
            "estimated_diameter_max": 0.0255500032
        },
        "feet": {
            "estimated_diameter_min": 60.3309310875,
            "estimated_diameter_max": 134.9040630575
        }
    },
    "is_potentially_hazardous_asteroid": false,
    "close_approach_data": [
        {
            "close_approach_date": "2006-03-08",
            "close_approach_date_full": "2006-Mar-08 04:53",
            "epoch_date_close_approach": 1141793580000,
            "relative_velocity": {
                "kilometers_per_second": "11.4839184727",
                "kilometers_per_hour": "41342.1065016829",
                "miles_per_hour": "25688.3772315596"
            },
            "miss_distance": {
                "astronomical": "0.0331711763",
                "lunar": "12.9035875807",
                "kilometers": "4962337.319874481",
                "miles": "3083453.4289345978"
            },
            "orbiting_body": "Earth"
        }
    ],
    "orbital_data": {
        "orbit_id": "9",
        "orbit_determination_date": "2017-04-06 09:09:00",
        "first_observation_date": "2006-02-27",
        "last_observation_date": "2006-03-04",
        "data_arc_in_days": 5,
        "observations_used": 24,
        "orbit_uncertainty": "8",
        "minimum_orbit_intersection": ".0172848",
        "jupiter_tisserand_invariant": "4.536",
        "epoch_osculation": "2453794.5",
        "eccentricity": ".4056587620891834",
        "semi_major_axis": "1.455425281721034",
        "inclination": "6.230831015011907",
        "ascending_node_longitude": "161.2770196052083",
        "orbital_period": "641.332574071877",
        "perihelion_distance": ".8650192636247781",
        "perihelion_argument": "66.310106106831",
        "aphelion_distance": "2.045831299817289",
        "perihelion_time": "2453847.421974948200",
        "mean_anomaly": "330.293242926381",
        "mean_motion": ".5613312258791539",
        "equinox": "J2000",
        "orbit_class": {
            "orbit_class_type": "APO",
            "orbit_class_description": "Near-Earth asteroid orbits which cross the Earth’s orbit similar to that of 1862 Apollo",
            "orbit_class_range": "a (semi-major axis) > 1.0 AU; q (perihelion) < 1.017 AU"
        }
    },
    "is_sentry_object": false
}